{
    "satellites": [
        {
            "name": "starlink339",
            "title": "Starlink-339 (G15-13)",
            "tle": [
                "1 67218C 25304AC  26009.09979167  .00002035  00000+0  33062-4 0    92",
                "2 67218  70.0001 330.6441 0003253 266.4993 330.4459 15.52528929    14"
            ],
            "stdMag": 5,
            "noradId": "67218",
            "tleUrl": "http://celestrak.org/NORAD/elements/supplemental/sup-gp.php?FILE=starlink&FORMAT=tle",
            "launchDate": "2025-12-17T15:27:50.000Z",
            "active": true,
            "batch": [
                {
                    "noradId": "67218",
                    "tle": [
                        "1 67218C 25304AC  26009.09979167  .00002035  00000+0  33062-4 0    92",
                        "2 67218  70.0001 330.6441 0003253 266.4993 330.4459 15.52528929    14"
                    ]
                },
                {
                    "noradId": "67217",
                    "tle": [
                        "1 67217C 25304AB  26009.09562500 -.00012079  00000+0 -19627-3 0    91",
                        "2 67217  70.0001 330.6577 0003199 272.6736 299.0793 15.52540178    17"
                    ]
                },
                {
                    "noradId": "67216",
                    "tle": [
                        "1 67216C 25304AA  26009.09909722 -.00008808  00000+0 -14313-3 0    93",
                        "2 67216  70.0002 330.6505 0003179 270.9197 318.3156 15.52537542    17"
                    ]
                },
                {
                    "noradId": "67215",
                    "tle": [
                        "1 67215C 25304Z   26009.09770833 -.00002626  00000+0 -42663-4 0    93",
                        "2 67215  70.0001 330.6566 0003173 272.2909 307.2636 15.52533563    11"
                    ]
                },
                {
                    "noradId": "67214",
                    "tle": [
                        "1 67214C 25304Y   26009.10118056 -.00012566  00000+0 -20417-3 0    93",
                        "2 67214  70.0001 330.6493 0003374 273.7058 323.3341 15.52542322    18"
                    ]
                },
                {
                    "noradId": "67213",
                    "tle": [
                        "1 67213C 25304X   26009.10118056 -.00014736  00000+0 -23944-3 0    91",
                        "2 67213  70.0002 330.6516 0003333 273.4048 321.7224 15.52543180    10"
                    ]
                },
                {
                    "noradId": "67212",
                    "tle": [
                        "1 67212C 25304W   26009.09631944 -.00013984  00000+0 -22720-3 0    99",
                        "2 67212  70.0000 330.6672 0003451 272.2760 293.7709 15.52543177    11"
                    ]
                },
                {
                    "noradId": "67211",
                    "tle": [
                        "1 67211C 25304V   26009.10048611 -.00388080  00000+0 -63307-2 0    90",
                        "2 67211  69.9999 330.6582 0003099 271.7534 315.5441 15.52811664    10"
                    ]
                },
                {
                    "noradId": "67210",
                    "tle": [
                        "1 67210C 25304U   26009.09284722 -.02232500  00000+0 -38470-1 0    91",
                        "2 67210  70.0000 330.6814 0003405 270.6985 271.9988 15.53168350    11"
                    ]
                },
                {
                    "noradId": "67209",
                    "tle": [
                        "1 67209C 25304T   26009.09631944 -.02274100  00000+0 -47728-1 0    99",
                        "2 67209  69.9999 330.6860 0003280 272.0565 278.0349 15.47535716    11"
                    ]
                },
                {
                    "noradId": "67208",
                    "tle": [
                        "1 67208C 25304S   26009.10048611 -.00011271  00000+0 -25735-3 0    95",
                        "2 67208  69.9999 330.7160 0002941 269.8800 267.2781 15.42725085    18"
                    ]
                },
                {
                    "noradId": "67207",
                    "tle": [
                        "1 67207C 25304R   26009.10048611  .00006973  00000+0  11329-3 0    99",
                        "2 67207  70.0001 330.6673 0003238 275.6868 304.0596 15.52523622    19"
                    ]
                },
                {
                    "noradId": "67206",
                    "tle": [
                        "1 67206C 25304Q   26009.10118056 -.00014327  00000+0 -23280-3 0    92",
                        "2 67206  70.0001 330.6676 0003292 274.9476 306.7638 15.52542650    16"
                    ]
                },
                {
                    "noradId": "67205",
                    "tle": [
                        "1 67205C 25304P   26009.09770833 -.00017932  00000+0 -29139-3 0    90",
                        "2 67205  70.0000 330.6796 0003203 272.1580 288.2356 15.52545805    11"
                    ]
                },
                {
                    "noradId": "67204",
                    "tle": [
                        "1 67204C 25304N   26009.09562500  .00002418  00000+0  39298-4 0    98",
                        "2 67204  70.0001 330.6875 0003081 275.4333 271.4359 15.52517744    13"
                    ]
                },
                {
                    "noradId": "67203",
                    "tle": [
                        "1 67203C 25304M   26009.09770833 -.02188700  00000+0 -37517-1 0    99",
                        "2 67203  70.0000 330.6843 0003320 270.1532 286.2526 15.53271933    13"
                    ]
                },
                {
                    "noradId": "67202",
                    "tle": [
                        "1 67202C 25304L   26009.09284722 -.02272400  00000+0 -47170-1 0    92",
                        "2 67202  69.9999 330.7103 0003078 272.6663 245.8823 15.47858631    18"
                    ]
                },
                {
                    "noradId": "67201",
                    "tle": [
                        "1 67201C 25304K   26009.10118056 -.00001731  00000+0 -39517-4 0    93",
                        "2 67201  69.9999 330.7274 0003081 265.2678 264.7576 15.42711619    18"
                    ]
                },
                {
                    "noradId": "67200",
                    "tle": [
                        "1 67200C 25304J   26009.09770833  .00014130  00000+0  32248-3 0    95",
                        "2 67200  70.0000 330.7885 0003457 279.5088 186.2095 15.42712437    14"
                    ]
                },
                {
                    "noradId": "67199",
                    "tle": [
                        "1 67199C 25304H   26009.09562500 -.00012462  00000+0 -20249-3 0    98",
                        "2 67199  70.0000 330.6990 0003126 271.0157 266.2378 15.52540832    16"
                    ]
                },
                {
                    "noradId": "67198",
                    "tle": [
                        "1 67198C 25304G   26009.09909722 -.02289300  00000+0 -41136-1 0    93",
                        "2 67198  69.9998 330.6944 0003128 268.7442 283.9090 15.52043706    14"
                    ]
                },
                {
                    "noradId": "67197",
                    "tle": [
                        "1 67197C 25304F   26009.09701389 -.00005600  00000+0 -91001-4 0    97",
                        "2 67197  70.0001 330.6975 0003060 271.7298 271.3721 15.52534080    15"
                    ]
                },
                {
                    "noradId": "67196",
                    "tle": [
                        "1 67196C 25304E   26009.10118056  .00036133  00000+0  82399-3 0    93",
                        "2 67196  69.9999 330.7534 0002530 265.9134 241.9780 15.42716564    10"
                    ]
                },
                {
                    "noradId": "67195",
                    "tle": [
                        "1 67195C 25304D   26009.09701389 -.00012047  00000+0 -19576-3 0    94",
                        "2 67195  70.0001 330.7043 0003196 275.1778 262.1723 15.52540482    14"
                    ]
                },
                {
                    "noradId": "67194",
                    "tle": [
                        "1 67194C 25304C   26009.09631944 -.02258400  00000+0 -48286-1 0    97",
                        "2 67194  69.9998 330.7230 0003243 272.7308 246.3056 15.46974395    18"
                    ]
                },
                {
                    "noradId": "67193",
                    "tle": [
                        "1 67193C 25304B   26009.09770833 -.00011715  00000+0 -19035-3 0    93",
                        "2 67193  70.0001 330.7070 0003061 272.7314 264.6650 15.52540502    11"
                    ]
                },
                {
                    "noradId": "67192",
                    "tle": [
                        "1 67192C 25304A   26009.09631944  .00036372  00000+0  83030-3 0    91",
                        "2 67192  70.0000 330.8182 0003435 276.5986 159.4345 15.42682102    10"
                    ]
                }
            ]
        }
    ],
    "config": {}
}